OBJECT_NAME,OBJECT_ID,EPOCH,MEAN_MOTION,ECCENTRICITY,INCLINATION,RA_OF_ASC_NODE,ARG_OF_PERICENTER,MEAN_ANOMALY,EPHEMERIS_TYPE,CLASSIFICATION_TYPE,NORAD_CAT_ID,ELEMENT_SET_NO,REV_AT_EPOCH,BSTAR,MEAN_MOTION_DOT,MEAN_MOTION_DDOT
GSAT-18,2016-060A,2026-06-04T01:56:07.008288,1.00271710,.00059593,0.0237,85.0341,343.9424,286.5826,0,U,41793,999,3539,0,-.65E-6,0
SKY MUSTER 2 (NBN1B),2016-060B,2026-06-04T07:24:24.122592,1.00270301,.00017866,0.0151,312.9519,121.4715,74.2378,0,U,41794,999,3539,0,-.232E-5,0
HIMAWARI-9,2016-064A,2026-06-03T21:07:09.916896,1.00270670,.00015639,0.0411,169.8886,311.0224,228.9789,0,U,41836,999,3507,0,-.263E-5,0
SHIJIAN-17 (SJ-17),2016-065A,2026-06-03T14:53:16.066176,0.99854083,.0002128,5.7184,72.7668,18.1736,280.6500,0,U,41838,999,3506,0,-.28E-6,0
GOES 16,2016-071A,2026-06-04T04:30:38.689920,1.00271220,.00006796,0.3071,85.6542,317.8199,172.1703,0,U,41866,999,3497,0,-.79E-6,0
TIANLIAN 1-04,2016-072A,2026-06-04T02:25:19.208064,1.00275065,.00420902,0.8355,83.0574,90.3135,292.3706,0,U,41869,999,3517,0,.44E-6,0
WGS F8 (USA 272),2016-075A,2026-06-03T22:52:30.724032,1.00260861,.00010379,0.0040,353.3990,357.6417,34.3167,0,U,41879,999,3468,0,-.192E-5,0
FENGYUN 4A,2016-077A,2026-06-04T07:18:17.210304,1.00276528,.00081743,2.2904,80.4243,151.6638,253.9587,0,U,41882,999,3480,0,-.345E-5,0
ECHOSTAR 19,2016-079A,2026-06-03T14:48:56.632032,1.00272599,.00016028,0.0181,5.9891,73.9814,297.2509,0,U,41893,999,3456,0,-.127E-5,0
JCSAT-110A (JCSAT-15),2016-082A,2026-06-03T22:41:09.313152,1.00271646,.00008452,0.0133,321.0861,130.9633,250.7078,0,U,41903,999,3462,0,-.339E-5,0
STAR ONE D1,2016-082B,2026-06-04T04:22:38.760384,1.00270291,.00020952,0.0098,35.0569,52.3047,146.9317,0,U,41904,999,3464,0,-.199E-5,0
TJS-2,2017-001A,2026-06-04T01:53:52.224288,1.00272411,.00008085,0.7993,85.5084,8.2686,253.7538,0,U,41911,999,3458,0,.5E-7,0
SBIRS GEO-4 (USA 273),2017-004A,2026-06-04T03:23:42.823968,1.00272793,.00024184,2.2179,42.9191,25.9753,255.5316,0,U,41937,999,3446,0,.135E-5,0
HISPASAT 36W-1,2017-006A,2026-06-04T04:50:08.527776,1.00270997,.00009665,0.0031,280.9641,155.7457,212.4846,0,U,41942,999,3411,0,-.232E-5,0
TELKOM 3S,2017-007A,2026-06-04T07:16:39.866016,1.00271576,.00025217,0.0155,278.4583,157.2281,44.2471,0,U,41944,999,3401,0,-.351E-5,0
INTELSAT 32E (IS-32E),2017-007B,2026-06-04T04:48:01.231200,1.00271400,.00002385,0.0177,353.6661,357.4359,290.3674,0,U,41945,999,3409,0,-.257E-5,0
ECHOSTAR 23,2017-014A,2026-06-04T01:03:38.314080,1.00271045,.00019419,0.0172,2.4204,68.4823,87.6037,0,U,42070,999,3379,0,-.45E-6,0
WGS F9 (USA 275),2017-016A,2026-06-04T04:57:00.369792,1.00271830,.00005088,0.0104,296.7657,145.4523,232.6975,0,U,42075,999,3376,0,-.84E-6,0
SES-10,2017-017A,2026-06-03T20:07:58.744704,1.00271234,.00030062,0.0238,36.0364,42.1098,49.2423,0,U,42432,999,3362,0,-.261E-5,0
CHINASAT 16 (SJ-13),2017-018A,2026-06-04T00:23:52.600992,1.00268493,.00032847,0.0989,92.1250,136.5212,140.3017,0,U,42662,999,3361,0,-.34E-5,0
KOREASAT 7,2017-023A,2026-06-04T07:16:09.912864,1.00268441,.00007756,0.0248,328.1329,95.0000,54.5297,0,U,42691,999,3324,0,-.35E-5,0
SGDC,2017-023B,2026-06-03T12:11:39.176448,1.00271018,.00031334,0.0117,26.9319,56.6819,276.4267,0,U,42692,999,3327,0,-.238E-5,0
GSAT-9,2017-024A,2026-06-04T04:12:21.631104,1.00274509,.00025023,0.0205,280.8311,147.4971,344.7029,0,U,42695,999,3316,0,-.275E-5,0
INMARSAT 5-F4,2017-025A,2026-06-04T03:33:49.355424,1.00271065,.00003119,0.0179,339.2000,91.8467,291.5079,0,U,42698,999,3314,0,.87E-6,0
SES-15,2017-026A,2026-06-04T07:05:38.635584,1.00270165,.00007174,0.0195,333.0325,95.7073,161.2574,0,U,42709,999,730,0,.72E-6,0
QZS-2 (MICHIBIKI-2),2017-028A,2026-06-03T14:37:16.987296,1.00287507,.075959,39.4485,243.3546,269.1264,100.0088,0,U,42738,999,749,0,-.158E-5,0
VIASAT-2,2017-029A,2026-06-04T04:06:38.846016,1.00271614,.00004293,0.0166,293.0874,146.7448,164.5687,0,U,42740,999,3307,0,-.253E-5,0
EUTELSAT 172B,2017-029B,2026-06-04T07:04:01.494336,1.00270198,.00001225,0.0177,153.0082,286.6668,91.0870,0,U,42741,999,3361,0,.6E-7,0
GSAT-19,2017-031A,2026-06-04T03:31:19.593984,1.00270047,.00071297,0.1002,91.7006,346.8945,274.7101,0,U,42747,999,3301,0,.137E-5,0
ECHOSTAR 21,2017-032A,2026-06-04T03:55:38.858880,1.00270158,.00025055,1.7722,354.8380,80.1843,246.7896,0,U,42749,999,3296,0,.77E-6,0
BULGARIASAT-1,2017-038A,2026-06-04T01:35:35.962080,1.00269330,.00036343,0.0621,89.5810,357.2218,191.5118,0,U,42801,999,3271,0,.23E-6,0
