GSAT-18                 
1 41793U 16060A   26155.08063667 -.00000065  00000+0  00000+0 0  9992
2 41793   0.0237  85.0341 0005959 343.9424 286.5826  1.00271710 35392
SKY MUSTER 2 (NBN1B)    
1 41794U 16060B   26155.30861253 -.00000232  00000+0  00000+0 0  9991
2 41794   0.0151 312.9519 0001786 121.4715  74.2378  1.00270301 35392
HIMAWARI-9              
1 41836U 16064A   26154.87997589 -.00000263  00000+0  00000+0 0  9999
2 41836   0.0411 169.8886 0001563 311.0224 228.9789  1.00270670 35077
SHIJIAN-17 (SJ-17)      
1 41838U 16065A   26154.62032484 -.00000028  00000+0  00000+0 0  9998
2 41838   5.7184  72.7668 0002128  18.1736 280.6500  0.99854083 35067
GOES 16                 
1 41866U 16071A   26155.18794780 -.00000079  00000+0  00000+0 0  9998
2 41866   0.3071  85.6542 0000679 317.8199 172.1703  1.00271220 34977
TIANLIAN 1-04           
1 41869U 16072A   26155.10091676  .00000044  00000+0  00000+0 0  9999
2 41869   0.8355  83.0574 0042090  90.3135 292.3706  1.00275065 35175
WGS F8 (USA 272)        
1 41879U 16075A   26154.95313338 -.00000192  00000+0  00000+0 0  9992
2 41879   0.0040 353.3990 0001037 357.6417  34.3167  1.00260861 34680
FENGYUN 4A              
1 41882U 16077A   26155.30436586 -.00000345  00000+0  00000+0 0  9999
2 41882   2.2904  80.4243 0008174 151.6638 253.9587  1.00276528 34808
ECHOSTAR 19             
1 41893U 16079A   26154.61732213 -.00000127  00000+0  00000+0 0  9990
2 41893   0.0181   5.9891 0001602  73.9814 297.2509  1.00272599 34567
JCSAT-110A (JCSAT-15)   
1 41903U 16082A   26154.94524668 -.00000339  00000+0  00000+0 0  9990
2 41903   0.0133 321.0861 0000845 130.9633 250.7078  1.00271646 34620
STAR ONE D1             
1 41904U 16082B   26155.18239306 -.00000199  00000+0  00000+0 0  9994
2 41904   0.0098  35.0569 0002095  52.3047 146.9317  1.00270291 34642
TJS-2                   
1 41911U 17001A   26155.07907667  .00000005  00000+0  00000+0 0  9999
2 41911   0.7993  85.5084 0000808   8.2686 253.7538  1.00272411 34583
SBIRS GEO-4 (USA 273)   
1 41937U 17004A   26155.14146787  .00000135  00000+0  00000+0 0  9990
2 41937   2.2179  42.9191 0002418  25.9753 255.5316  1.00272793 34464
HISPASAT 36W-1          
1 41942U 17006A   26155.20148759 -.00000232  00000+0  00000+0 0  9995
2 41942   0.0031 280.9641 0000966 155.7457 212.4846  1.00270997 34112
TELKOM 3S               
1 41944U 17007A   26155.30323919 -.00000351  00000+0  00000+0 0  9994
2 41944   0.0155 278.4583 0002521 157.2281  44.2471  1.00271576 34017
INTELSAT 32E (IS-32E)   
1 41945U 17007B   26155.20001425 -.00000257  00000+0  00000+0 0  9994
2 41945   0.0177 353.6661 0000238 357.4359 290.3674  1.00271400 34091
ECHOSTAR 23             
1 42070U 17014A   26155.04419345 -.00000045  00000+0  00000+0 0  9993
2 42070   0.0172   2.4204 0001941  68.4823  87.6037  1.00271045 33796
WGS F9 (USA 275)        
1 42075U 17016A   26155.20625428 -.00000084  00000+0  00000+0 0  9992
2 42075   0.0104 296.7657 0000508 145.4523 232.6975  1.00271830 33769
SES-10                  
1 42432U 17017A   26154.83887436 -.00000261  00000+0  00000+0 0  9994
2 42432   0.0238  36.0364 0003006  42.1098  49.2423  1.00271234 33623
CHINASAT 16 (SJ-13)     
1 42662U 17018A   26155.01658103 -.00000340  00000+0  00000+0 0  9996
2 42662   0.0989  92.1250 0003284 136.5212 140.3017  1.00268493 33616
KOREASAT 7              
1 42691U 17023A   26155.30289251 -.00000350  00000+0  00000+0 0  9991
2 42691   0.0248 328.1329 0000775  95.0000  54.5297  1.00268441 33249
SGDC                    
1 42692U 17023B   26154.50809232 -.00000238  00000+0  00000+0 0  9995
2 42692   0.0117  26.9319 0003133  56.6819 276.4267  1.00271018 33278
GSAT-9                  
1 42695U 17024A   26155.17525036 -.00000275  00000+0  00000+0 0  9991
2 42695   0.0205 280.8311 0002502 147.4971 344.7029  1.00274509 33160
INMARSAT 5-F4           
1 42698U 17025A   26155.14848791  .00000087  00000+0  00000+0 0  9998
2 42698   0.0179 339.2000 0000311  91.8467 291.5079  1.00271065 33141
SES-15                  
1 42709U 17026A   26155.29558606  .00000072  00000+0  00000+0 0  9995
2 42709   0.0195 333.0325 0000717  95.7073 161.2574  1.00270165  7302
QZS-2 (MICHIBIKI-2)     
1 42738U 17028A   26154.60922439 -.00000158  00000+0  00000+0 0  9998
2 42738  39.4485 243.3546 0759590 269.1264 100.0088  1.00287507  7498
VIASAT-2                
1 42740U 17029A   26155.17128294 -.00000253  00000+0  00000+0 0  9998
2 42740   0.0166 293.0874 0000429 146.7448 164.5687  1.00271614 33076
EUTELSAT 172B           
1 42741U 17029B   26155.29446174  .00000006  00000+0  00000+0 0  9997
2 42741   0.0177 153.0082 0000122 286.6668  91.0870  1.00270198 33617
GSAT-19                 
1 42747U 17031A   26155.14675456  .00000137  00000+0  00000+0 0  9992
2 42747   0.1002  91.7006 0007129 346.8945 274.7101  1.00270047 33010
ECHOSTAR 21             
1 42749U 17032A   26155.16364420  .00000077  00000+0  00000+0 0  9996
2 42749   1.7722 354.8380 0002505  80.1843 246.7896  1.00270158 32960
BULGARIASAT-1           
1 42801U 17038A   26155.06638845  .00000023  00000+0  00000+0 0  9996
2 42801   0.0621  89.5810 0003634 357.2218 191.5118  1.00269330 32714
